TRANSPORTER-12 OBJECT BT
1 62674U 25009BT  26068.71416991  .00013824  00000+0  51029-3 0  9998
2 62674  97.4094 151.5992 0003682 313.5044  46.5889 15.27872239121360
STARLINK-36082          
1 66872U 25281AA  26068.15908204  .00041504  00000+0  15072-2 0  9998
2 66872  43.0015 346.5308 0001815 241.8450 118.2219 15.27624289 16098
