[{"OBJECT_NAME":"TRANSPORTER-12 OBJECT BT","OBJECT_ID":"2025-009BT","EPOCH":"2026-03-09T17:08:24.281088","MEAN_MOTION":15.27872239,"ECCENTRICITY":0.00036816,"INCLINATION":97.4094,"RA_OF_ASC_NODE":151.5992,"ARG_OF_PERICENTER":313.5044,"MEAN_ANOMALY":46.5889,"EPHEMERIS_TYPE":0,"CLASSIFICATION_TYPE":"U","NORAD_CAT_ID":62674,"ELEMENT_SET_NO":999,"REV_AT_EPOCH":12136,"BSTAR":0.000510288,"MEAN_MOTION_DOT":0.00013824,"MEAN_MOTION_DDOT":0},{"OBJECT_NAME":"STARLINK-36082","OBJECT_ID":"2025-281AA","EPOCH":"2026-03-09T03:49:04.688256","MEAN_MOTION":15.27624289,"ECCENTRICITY":0.00018153,"INCLINATION":43.0015,"RA_OF_ASC_NODE":346.5308,"ARG_OF_PERICENTER":241.845,"MEAN_ANOMALY":118.2219,"EPHEMERIS_TYPE":0,"CLASSIFICATION_TYPE":"U","NORAD_CAT_ID":66872,"ELEMENT_SET_NO":999,"REV_AT_EPOCH":1609,"BSTAR":0.0015072321,"MEAN_MOTION_DOT":0.00041504,"MEAN_MOTION_DDOT":0}]
